[{"OBJECT_NAME":"STARLINK-31704","OBJECT_ID":"2024-076Y","EPOCH":"2026-03-09T22:00:01.999584","MEAN_MOTION":15.30892355,"ECCENTRICITY":0.00079744,"INCLINATION":42.9978,"RA_OF_ASC_NODE":323.2923,"ARG_OF_PERICENTER":240.5046,"MEAN_ANOMALY":200.4144,"EPHEMERIS_TYPE":0,"CLASSIFICATION_TYPE":"U","NORAD_CAT_ID":59586,"ELEMENT_SET_NO":999,"REV_AT_EPOCH":581,"BSTAR":0.0024766131,"MEAN_MOTION_DOT":0.00076042,"MEAN_MOTION_DDOT":0},{"OBJECT_NAME":"STARLINK-35948","OBJECT_ID":"2025-271S","EPOCH":"2026-03-09T11:17:06.192384","MEAN_MOTION":15.30210809,"ECCENTRICITY":0.00012214,"INCLINATION":53.1581,"RA_OF_ASC_NODE":140.915,"ARG_OF_PERICENTER":80.2539,"MEAN_ANOMALY":279.8599,"EPHEMERIS_TYPE":0,"CLASSIFICATION_TYPE":"U","NORAD_CAT_ID":66633,"ELEMENT_SET_NO":999,"REV_AT_EPOCH":1753,"BSTAR":0.00094805321,"MEAN_MOTION_DOT":0.00027834,"MEAN_MOTION_DDOT":0}]
